0 YAOGAN 7 DEB
1 38265U 09069B   13281.24353162  .00001794  00000-0  65656-3 0  1320
2 38265 097.7724 272.9191 0250773 015.2903 048.0299 14.17960579193832
0 YAOGAN 7 DEB
1 38265U 09069B   13283.21856545  .00001998  00000-0  72953-3 0  1337
2 38265 097.7724 274.6517 0250601 009.4670 049.9295 14.17975083194113
0 YAOGAN 7 DEB
1 38265U 09069B   13288.45881237  .00003508  00000-0  12707-2 0  1344
2 38265 097.7717 279.2482 0250295 354.0126 160.0489 14.17998255194858
0 YAOGAN 7 DEB
1 38265U 09069B   13290.78111289  .00003010  00000-0  10929-2 0  1359
2 38265 097.7722 281.2851 0250109 347.1553 134.9768 14.18012445195184
0 YAOGAN 7 DEB
1 38265U 09069B   13294.45659919  .00003435  00000-0  12457-2 0  1364
2 38265 097.7729 284.5094 0249777 336.2820 177.9253 14.18031579195704
